{"type": "FeatureCollection", "features": [ {"type": "Feature", "properties": {"norad_id": 31057, "name": "FENGYUN 1C DEB", "group": "fengyun-1c-debris", "lat": 72.92116172677085, "lon": -1.96236847299528, "alt_km": 717.219010556777, "timestamp": "2025-12-16T03:53:27.336415+00:00", "meta": {"OBJECT_NAME": "FENGYUN 1C DEB", "OBJECT_ID": "1999-025BFB", "EPOCH": "2025-12-07T08:31:09.738912", "MEAN_MOTION": 14.79274467, "ECCENTRICITY": 0.0137797, "INCLINATION": 99.2572, "RA_OF_ASC_NODE": 19.9678, "ARG_OF_PERICENTER": 268.7892, "MEAN_ANOMALY": 89.7526, "EPHEMERIS_TYPE": 0, "CLASSIFICATION_TYPE": "U", "NORAD_CAT_ID": 31057, "ELEMENT_SET_NO": 999, "REV_AT_EPOCH": 61873, "BSTAR": 0.0014079461, "MEAN_MOTION_DOT": 0.00012236, "MEAN_MOTION_DDOT": 0}, "tle": {"line1": "1 31057U 99025BFB 25341.35497383  .00012236  00000+0  14079-2 0  9994", "line2": "2 31057  99.2572  19.9678 0137797 268.7892  89.7526 14.79274467618731"}}, "geometry": {"type": "Point", "coordinates": [-1.96236847299528, 72.92116172677085]}}, {"type": "Feature", "properties": {"norad_id": 31058, "name": "FENGYUN 1C DEB", "group": "fengyun-1c-debris", "lat": -24.165529310260677, "lon": 115.72369168709768, "alt_km": 667.0728789972172, "timestamp": "2025-12-16T03:53:27.336427+00:00", "meta": {"OBJECT_NAME": "FENGYUN 1C DEB", "OBJECT_ID": "1999-025BFC", "EPOCH": "2025-12-13T01:46:58.731168", "MEAN_MOTION": 14.76336624, "ECCENTRICITY": 0.00951509, "INCLINATION": 99.5659, "RA_OF_ASC_NODE": 296.4111, "ARG_OF_PERICENTER": 105.1119, "MEAN_ANOMALY": 256.0635, "EPHEMERIS_TYPE": 0, "CLASSIFICATION_TYPE": "U", "NORAD_CAT_ID": 31058, "ELEMENT_SET_NO": 999, "REV_AT_EPOCH": 99554, "BSTAR": 0.0017482376, "MEAN_MOTION_DOT": 0.00013017, "MEAN_MOTION_DDOT": 0}, "tle": {"line1": "1 31058U 99025BFC 25347.07429087  .00013017  00000+0  17482-2 0  9995", "line2": "2 31058  99.5659 296.4111 0095150 105.1119 256.0635 14.76336624995545"}}, "geometry": {"type": "Point", "coordinates": [115.72369168709768, -24.165529310260677]}}, {"type": "Feature", "properties": {"norad_id": 31062, "name": "FENGYUN 1C DEB", "group": "fengyun-1c-debris", "lat": -31.24802863315999, "lon": -13.155242811845872, "alt_km": 998.7899967198027, "timestamp": "2025-12-16T03:53:27.336438+00:00", "meta": {"OBJECT_NAME": "FENGYUN 1C DEB", "OBJECT_ID": "1999-025BFG", "EPOCH": "2025-12-14T10:51:17.551008", "MEAN_MOTION": 13.75692796, "ECCENTRICITY": 0.01715475, "INCLINATION": 98.9966, "RA_OF_ASC_NODE": 170.7461, "ARG_OF_PERICENTER": 313.3068, "MEAN_ANOMALY": 76.8096, "EPHEMERIS_TYPE": 0, "CLASSIFICATION_TYPE": "U", "NORAD_CAT_ID": 31062, "ELEMENT_SET_NO": 999, "REV_AT_EPOCH": 94257, "BSTAR": 0.00035260475, "MEAN_MOTION_DOT": 3.37e-06, "MEAN_MOTION_DDOT": 0}, "tle": {"line1": "1 31062U 99025BFG 25348.45228647  .00000337  00000+0  35260-3 0  9998", "line2": "2 31062  98.9966 170.7461 0171547 313.3068  76.8096 13.75692796942574"}}, "geometry": {"type": "Point", "coordinates": [-13.155242811845872, -31.24802863315999]}}, {"type": "Feature", "properties": {"norad_id": 31064, "name": "FENGYUN 1C DEB", "group": "fengyun-1c-debris", "lat": -35.16672073975326, "lon": 146.65437041756155, "alt_km": 947.6231459097971, "timestamp": "2025-12-16T03:53:27.336450+00:00", "meta": {"OBJECT_NAME": "FENGYUN 1C DEB", "OBJECT_ID": "1999-025BFJ", "EPOCH": "2025-12-14T22:18:03.510720", "MEAN_MOTION": 14.22139925, "ECCENTRICITY": 0.02413906, "INCLINATION": 98.5739, "RA_OF_ASC_NODE": 331.556, "ARG_OF_PERICENTER": 355.2741, "MEAN_ANOMALY": 33.6089, "EPHEMERIS_TYPE": 0, "CLASSIFICATION_TYPE": "U", "NORAD_CAT_ID": 31064, "ELEMENT_SET_NO": 999, "REV_AT_EPOCH": 97286, "BSTAR": 0.00040345463, "MEAN_MOTION_DOT": 1.155e-05, "MEAN_MOTION_DDOT": 0}, "tle": {"line1": "1 31064U 99025BFJ 25348.92920730  .00001155  00000+0  40345-3 0  9993", "line2": "2 31064  98.5739 331.5560 0241390 355.2741  33.6089 14.22139925972865"}}, "geometry": {"type": "Point", "coordinates": [146.65437041756155, -35.16672073975326]}}, {"type": "Feature", "properties": {"norad_id": 31065, "name": "FENGYUN 1C DEB", "group": "fengyun-1c-debris", "lat": -41.2323146310529, "lon": -178.3345339785664, "alt_km": 827.9484347361631, "timestamp": "2025-12-16T03:53:27.336461+00:00", "meta": {"OBJECT_NAME": "FENGYUN 1C DEB", "OBJECT_ID": "1999-025BFK", "EPOCH": "2025-12-13T07:35:59.491392", "MEAN_MOTION": 14.28179261, "ECCENTRICITY": 0.00351676, "INCLINATION": 98.4666, "RA_OF_ASC_NODE": 6.4073, "ARG_OF_PERICENTER": 29.7365, "MEAN_ANOMALY": 330.5806, "EPHEMERIS_TYPE": 0, "CLASSIFICATION_TYPE": "U", "NORAD_CAT_ID": 31065, "ELEMENT_SET_NO": 999, "REV_AT_EPOCH": 64586, "BSTAR": 0.0013755, "MEAN_MOTION_DOT": 3.406e-05, "MEAN_MOTION_DDOT": 0}, "tle": {"line1": "1 31065U 99025BFK 25347.31666078  .00003406  00000+0  13755-2 0  9993", "line2": "2 31065  98.4666   6.4073 0035167  29.7365 330.5806 14.28179261645865"}}, "geometry": {"type": "Point", "coordinates": [-178.3345339785664, -41.2323146310529]}}, {"type": "Feature", "properties": {"norad_id": 31068, "name": "FENGYUN 1C DEB", "group": "fengyun-1c-debris", "lat": 25.52820726997612, "lon": -31.96878324624495, "alt_km": 843.6996156801606, "timestamp": "2025-12-16T03:53:27.336471+00:00", "meta": {"OBJECT_NAME": "FENGYUN 1C DEB", "OBJECT_ID": "1999-025BFN", "EPOCH": "2025-12-08T16:50:26.088576", "MEAN_MOTION": 14.0918717, "ECCENTRICITY": 0.01655633, "INCLINATION": 98.6287, "RA_OF_ASC_NODE": 325.0408, "ARG_OF_PERICENTER": 129.6248, "MEAN_ANOMALY": 231.9669, "EPHEMERIS_TYPE": 0, "CLASSIFICATION_TYPE": "U", "NORAD_CAT_ID": 31068, "ELEMENT_SET_NO": 999, "REV_AT_EPOCH": 96298, "BSTAR": 0.00020953749, "MEAN_MOTION_DOT": 3.73e-06, "MEAN_MOTION_DDOT": 0}, "tle": {"line1": "1 31068U 99025BFN 25342.70169084  .00000373  00000+0  20954-3 0  9999", "line2": "2 31068  98.6287 325.0408 0165563 129.6248 231.9669 14.09187170962988"}}, "geometry": {"type": "Point", "coordinates": [-31.96878324624495, 25.52820726997612]}}, {"type": "Feature", "properties": {"norad_id": 31069, "name": "FENGYUN 1C DEB", "group": "fengyun-1c-debris", "lat": -68.55426614420372, "lon": -53.31560952599826, "alt_km": 783.5547087587665, "timestamp": "2025-12-16T03:53:27.336481+00:00", "meta": {"OBJECT_NAME": "FENGYUN 1C DEB", "OBJECT_ID": "1999-025BFP", "EPOCH": "2025-12-15T06:58:24.353760", "MEAN_MOTION": 14.57126924, "ECCENTRICITY": 0.01044954, "INCLINATION": 99.0991, "RA_OF_ASC_NODE": 149.8113, "ARG_OF_PERICENTER": 69.7479, "MEAN_ANOMALY": 291.4914, "EPHEMERIS_TYPE": 0, "CLASSIFICATION_TYPE": "U", "NORAD_CAT_ID": 31069, "ELEMENT_SET_NO": 999, "REV_AT_EPOCH": 98723, "BSTAR": 0.00048052273, "MEAN_MOTION_DOT": 2.275e-05, "MEAN_MOTION_DDOT": 0}, "tle": {"line1": "1 31069U 99025BFP 25349.29055965  .00002275  00000+0  48052-3 0  9995", "line2": "2 31069  99.0991 149.8113 0104495  69.7479 291.4914 14.57126924987230"}}, "geometry": {"type": "Point", "coordinates": [-53.31560952599826, -68.55426614420372]}}, {"type": "Feature", "properties": {"norad_id": 31071, "name": "FENGYUN 1C DEB", "group": "fengyun-1c-debris", "lat": -65.78954746152725, "lon": 88.91243614496476, "alt_km": 687.1417679583519, "timestamp": "2025-12-16T03:53:27.336491+00:00", "meta": {"OBJECT_NAME": "FENGYUN 1C DEB", "OBJECT_ID": "1999-025BFR", "EPOCH": "2025-12-15T00:05:47.151744", "MEAN_MOTION": 14.52651665, "ECCENTRICITY": 0.00559333, "INCLINATION": 99.0416, "RA_OF_ASC_NODE": 66.9247, "ARG_OF_PERICENTER": 274.8809, "MEAN_ANOMALY": 84.6, "EPHEMERIS_TYPE": 0, "CLASSIFICATION_TYPE": "U", "NORAD_CAT_ID": 31071, "ELEMENT_SET_NO": 999, "REV_AT_EPOCH": 65527, "BSTAR": 0.00072662083, "MEAN_MOTION_DOT": 2.984e-05, "MEAN_MOTION_DDOT": 0}, "tle": {"line1": "1 31071U 99025BFR 25349.00401796  .00002984  00000+0  72662-3 0  9995", "line2": "2 31071  99.0416  66.9247 0055933 274.8809  84.6000 14.52651665655274"}}, "geometry": {"type": "Point", "coordinates": [88.91243614496476, -65.78954746152725]}}, {"type": "Feature", "properties": {"norad_id": 31072, "name": "FENGYUN 1C DEB", "group": "fengyun-1c-debris", "lat": -2.8372536637906354, "lon": 175.2986020534984, "alt_km": 819.4476401997426, "timestamp": "2025-12-16T03:53:27.336501+00:00", "meta": {"OBJECT_NAME": "FENGYUN 1C DEB", "OBJECT_ID": "1999-025BFS", "EPOCH": "2025-12-15T06:50:38.614560", "MEAN_MOTION": 14.2549222, "ECCENTRICITY": 0.02103803, "INCLINATION": 99.3332, "RA_OF_ASC_NODE": 354.8322, "ARG_OF_PERICENTER": 90.5097, "MEAN_ANOMALY": 272.0189, "EPHEMERIS_TYPE": 0, "CLASSIFICATION_TYPE": "U", "NORAD_CAT_ID": 31072, "ELEMENT_SET_NO": 999, "REV_AT_EPOCH": 96679, "BSTAR": 0.00049606226, "MEAN_MOTION_DOT": 1.426e-05, "MEAN_MOTION_DDOT": 0}, "tle": {"line1": "1 31072U 99025BFS 25349.28516915  .00001426  00000+0  49606-3 0  9998", "line2": "2 31072  99.3332 354.8322 0210380  90.5097 272.0189 14.25492220966792"}}, "geometry": {"type": "Point", "coordinates": [175.2986020534984, -2.8372536637906354]}}, {"type": "Feature", "properties": {"norad_id": 31073, "name": "FENGYUN 1C DEB", "group": "fengyun-1c-debris", "lat": 13.734469487530122, "lon": 22.30043258378179, "alt_km": 821.0054691821288, "timestamp": "2025-12-16T03:53:27.336512+00:00", "meta": {"OBJECT_NAME": "FENGYUN 1C DEB", "OBJECT_ID": "1999-025BFT", "EPOCH": "2025-12-13T12:45:04.677696", "MEAN_MOTION": 14.24806059, "ECCENTRICITY": 0.00454376, "INCLINATION": 99.2205, "RA_OF_ASC_NODE": 197.2639, "ARG_OF_PERICENTER": 283.3853, "MEAN_ANOMALY": 76.2261, "EPHEMERIS_TYPE": 0, "CLASSIFICATION_TYPE": "U", "NORAD_CAT_ID": 31073, "ELEMENT_SET_NO": 999, "REV_AT_EPOCH": 97094, "BSTAR": 0.0018876513, "MEAN_MOTION_DOT": 4.403e-05, "MEAN_MOTION_DDOT": 0}, "tle": {"line1": "1 31073U 99025BFT 25347.53130414  .00004403  00000+0  18877-2 0  9994", "line2": "2 31073  99.2205 197.2639 0045437 283.3853  76.2261 14.24806059970947"}}, "geometry": {"type": "Point", "coordinates": [22.30043258378179, 13.734469487530122]}}]}